{
  "type": "FeatureCollection",
  "features": [
    {
      "type": "Feature",
      "properties": {
        "norad_id": 35443,
        "name": "COSMOS 2251 DEB",
        "group": "cosmos-2251-debris",
        "lat": -63.7517147834734,
        "lon": -179.29396919288038,
        "alt_km": 623.5503664851049,
        "timestamp": "2025-12-15T22:44:29.326407+00:00",
        "meta_object_name": "COSMOS 2251 DEB",
        "meta_object_id": "1993-036AKM",
        "meta_epoch": "2025-12-15T08:48:26.743680",
        "meta_mean_motion": 14.96932548,
        "meta_eccentricity": 0.00731181,
        "meta_inclination": 73.9871,
        "meta_ra_of_asc_node": 326.2641,
        "meta_arg_of_pericenter": 107.3149,
        "meta_mean_anomaly": 253.6052,
        "meta_ephemeris_type": 0,
        "meta_classification_type": "U",
        "meta_norad_cat_id": 35443,
        "meta_element_set_no": 999,
        "meta_rev_at_epoch": 86917,
        "meta_bstar": 0.0020713088,
        "meta_mean_motion_dot": 0.00025182,
        "meta_mean_motion_ddot": 0,
        "tle_line1": "1 35443U 93036AKM 25349.36697620  .00025182  00000+0  20713-2 0  9994",
        "tle_line2": "2 35443  73.9871 326.2641 0073118 107.3149 253.6052 14.96932548869170"
      },
      "geometry": {
        "type": "Point",
        "coordinates": [
          -179.29396919288038,
          -63.7517147834734
        ]
      }
    },
    {
      "type": "Feature",
      "properties": {
        "norad_id": 35445,
        "name": "COSMOS 2251 DEB",
        "group": "cosmos-2251-debris",
        "lat": -26.657045427659806,
        "lon": 122.15290849349853,
        "alt_km": 801.959591927015,
        "timestamp": "2025-12-15T22:44:29.326417+00:00",
        "meta_object_name": "COSMOS 2251 DEB",
        "meta_object_id": "1993-036AKP",
        "meta_epoch": "2025-12-15T06:59:08.966400",
        "meta_mean_motion": 14.59211458,
        "meta_eccentricity": 0.01439383,
        "meta_inclination": 74.0367,
        "meta_ra_of_asc_node": 295.1422,
        "meta_arg_of_pericenter": 21.5014,
        "meta_mean_anomaly": 339.2112,
        "meta_ephemeris_type": 0,
        "meta_classification_type": "U",
        "meta_norad_cat_id": 35445,
        "meta_element_set_no": 999,
        "meta_rev_at_epoch": 87366,
        "meta_bstar": 0.0014214985,
        "meta_mean_motion_dot": 7.725e-05,
        "meta_mean_motion_ddot": 0,
        "tle_line1": "1 35445U 93036AKP 25349.29107600  .00007725  00000+0  14215-2 0  9995",
        "tle_line2": "2 35445  74.0367 295.1422 0143938  21.5014 339.2112 14.59211458873667"
      },
      "geometry": {
        "type": "Point",
        "coordinates": [
          122.15290849349853,
          -26.657045427659806
        ]
      }
    },
    {
      "type": "Feature",
      "properties": {
        "norad_id": 35446,
        "name": "COSMOS 2251 DEB",
        "group": "cosmos-2251-debris",
        "lat": -11.897300221903519,
        "lon": 135.57228803697177,
        "alt_km": 742.9165388785668,
        "timestamp": "2025-12-15T22:44:29.326428+00:00",
        "meta_object_name": "COSMOS 2251 DEB",
        "meta_object_id": "1993-036AKQ",
        "meta_epoch": "2025-12-14T04:36:11.087136",
        "meta_mean_motion": 14.54631027,
        "meta_eccentricity": 0.00744204,
        "meta_inclination": 74.0468,
        "meta_ra_of_asc_node": 315.4356,
        "meta_arg_of_pericenter": 73.2125,
        "meta_mean_anomaly": 287.7185,
        "meta_ephemeris_type": 0,
        "meta_classification_type": "U",
        "meta_norad_cat_id": 35446,
        "meta_element_set_no": 999,
        "meta_rev_at_epoch": 88029,
        "meta_bstar": 0.00015794342,
        "meta_mean_motion_dot": 6.7e-06,
        "meta_mean_motion_ddot": 0,
        "tle_line1": "1 35446U 93036AKQ 25348.19179499  .00000670  00000+0  15794-3 0  9995",
        "tle_line2": "2 35446  74.0468 315.4356 0074420  73.2125 287.7185 14.54631027880295"
      },
      "geometry": {
        "type": "Point",
        "coordinates": [
          135.57228803697177,
          -11.897300221903519
        ]
      }
    },
    {
      "type": "Feature",
      "properties": {
        "norad_id": 35448,
        "name": "COSMOS 2251 DEB",
        "group": "cosmos-2251-debris",
        "lat": 44.10723602880399,
        "lon": 99.65037202737254,
        "alt_km": 714.1420481880914,
        "timestamp": "2025-12-15T22:44:29.326438+00:00",
        "meta_object_name": "COSMOS 2251 DEB",
        "meta_object_id": "1993-036AKS",
        "meta_epoch": "2025-12-14T16:48:40.813632",
        "meta_mean_motion": 14.54286955,
        "meta_eccentricity": 0.00119673,
        "meta_inclination": 73.9048,
        "meta_ra_of_asc_node": 85.7736,
        "meta_arg_of_pericenter": 268.2948,
        "meta_mean_anomaly": 91.6843,
        "meta_ephemeris_type": 0,
        "meta_classification_type": "U",
        "meta_norad_cat_id": 35448,
        "meta_element_set_no": 999,
        "meta_rev_at_epoch": 87363,
        "meta_bstar": 0.00094048305,
        "meta_mean_motion_dot": 3.966e-05,
        "meta_mean_motion_ddot": 0,
        "tle_line1": "1 35448U 93036AKS 25348.70047238  .00003966  00000+0  94048-3 0  9999",
        "tle_line2": "2 35448  73.9048  85.7736 0011967 268.2948  91.6843 14.54286955873633"
      },
      "geometry": {
        "type": "Point",
        "coordinates": [
          99.65037202737254,
          44.10723602880399
        ]
      }
    },
    {
      "type": "Feature",
      "properties": {
        "norad_id": 35451,
        "name": "COSMOS 2251 DEB",
        "group": "cosmos-2251-debris",
        "lat": -66.07650872228687,
        "lon": 55.21780269449607,
        "alt_km": 448.0419143967074,
        "timestamp": "2025-12-15T22:44:29.326449+00:00",
        "meta_object_name": "COSMOS 2251 DEB",
        "meta_object_id": "1993-036AKV",
        "meta_epoch": "2025-12-14T17:21:00.017568",
        "meta_mean_motion": 15.35844177,
        "meta_eccentricity": 0.00411257,
        "meta_inclination": 73.9322,
        "meta_ra_of_asc_node": 98.383,
        "meta_arg_of_pericenter": 344.054,
        "meta_mean_anomaly": 15.9367,
        "meta_ephemeris_type": 0,
        "meta_classification_type": "U",
        "meta_norad_cat_id": 35451,
        "meta_element_set_no": 999,
        "meta_rev_at_epoch": 67436,
        "meta_bstar": 0.0011714729,
        "meta_mean_motion_dot": 0.00042215,
        "meta_mean_motion_ddot": 0,
        "tle_line1": "1 35451U 93036AKV 25348.72291687  .00042215  00000+0  11715-2 0  9993",
        "tle_line2": "2 35451  73.9322  98.3830 0041125 344.0540  15.9367 15.35844177674362"
      },
      "geometry": {
        "type": "Point",
        "coordinates": [
          55.21780269449607,
          -66.07650872228687
        ]
      }
    },
    {
      "type": "Feature",
      "properties": {
        "norad_id": 35453,
        "name": "COSMOS 2251 DEB",
        "group": "cosmos-2251-debris",
        "lat": -73.83485308639979,
        "lon": -67.14144805402213,
        "alt_km": 799.1655683599383,
        "timestamp": "2025-12-15T22:44:29.326459+00:00",
        "meta_object_name": "COSMOS 2251 DEB",
        "meta_object_id": "1993-036AKX",
        "meta_epoch": "2025-12-12T10:00:01.192608",
        "meta_mean_motion": 14.37983532,
        "meta_eccentricity": 0.00672601,
        "meta_inclination": 74.0093,
        "meta_ra_of_asc_node": 20.9669,
        "meta_arg_of_pericenter": 155.0047,
        "meta_mean_anomaly": 205.439,
        "meta_ephemeris_type": 0,
        "meta_classification_type": "U",
        "meta_norad_cat_id": 35453,
        "meta_element_set_no": 999,
        "meta_rev_at_epoch": 86214,
        "meta_bstar": 0.0010887113,
        "meta_mean_motion_dot": 3.355e-05,
        "meta_mean_motion_ddot": 0,
        "tle_line1": "1 35453U 93036AKX 25346.41668047  .00003355  00000+0  10887-2 0  9998",
        "tle_line2": "2 35453  74.0093  20.9669 0067260 155.0047 205.4390 14.37983532862149"
      },
      "geometry": {
        "type": "Point",
        "coordinates": [
          -67.14144805402213,
          -73.83485308639979
        ]
      }
    },
    {
      "type": "Feature",
      "properties": {
        "norad_id": 35455,
        "name": "COSMOS 2251 DEB",
        "group": "cosmos-2251-debris",
        "lat": -68.64721734304686,
        "lon": 155.8851348136322,
        "alt_km": 784.6899306866599,
        "timestamp": "2025-12-15T22:44:29.326469+00:00",
        "meta_object_name": "COSMOS 2251 DEB",
        "meta_object_id": "1993-036AKZ",
        "meta_epoch": "2025-12-15T06:39:23.942880",
        "meta_mean_motion": 14.49440801,
        "meta_eccentricity": 0.00992528,
        "meta_inclination": 74.0281,
        "meta_ra_of_asc_node": 290.039,
        "meta_arg_of_pericenter": 32.9545,
        "meta_mean_anomaly": 327.7748,
        "meta_ephemeris_type": 0,
        "meta_classification_type": "U",
        "meta_norad_cat_id": 35455,
        "meta_element_set_no": 999,
        "meta_rev_at_epoch": 86580,
        "meta_bstar": 0.0011136115,
        "meta_mean_motion_dot": 4.513e-05,
        "meta_mean_motion_ddot": 0,
        "tle_line1": "1 35455U 93036AKZ 25349.27736045  .00004513  00000+0  11136-2 0  9996",
        "tle_line2": "2 35455  74.0281 290.0390 0099252  32.9545 327.7748 14.49440801865804"
      },
      "geometry": {
        "type": "Point",
        "coordinates": [
          155.8851348136322,
          -68.64721734304686
        ]
      }
    }
  ]
}